NORAD_CAT_ID,OBJECT_NAME,OBJECT_TYPE,EPOCH,MEAN_MOTION,ECCENTRICITY,INCLINATION,RA_OF_ASC_NODE,ARG_OF_PERICENTER,MEAN_ANOMALY,BSTAR,MEAN_MOTION_DOT,MEAN_MOTION_DDOT,TLE_LINE0,TLE_LINE1,TLE_LINE2,SEMIMAJOR_AXIS,PERIOD,APOGEE,PERIGEE,DECAYED
52686.0,STARLINK-4005,PAYLOAD,2024-05-25 10:34:55,15.0882298,0.0001368,53.2151,196.9502,104.4554,255.659,-0.00023251,-3.985e-05,0.0,0 STARLINK-4005,1 52686U 22053AG  24146.44091589 -.00003985  00000-0 -23251-3 0  9999,2 52686  53.2151 196.9502 0001368 104.4554 255.6590 15.08822980112121,6917.932,95.439,540.744,538.851,0.0
52686.0,STARLINK-4005,PAYLOAD,2024-05-25 20:07:13,15.08844802,0.000216,53.2155,195.1732,127.6747,232.4441,0.00058485,9.033e-05,0.0,0 STARLINK-4005,1 52686U 22053AG  24146.83835603  .00009033  00000-0  58485-3 0  9990,2 52686  53.2155 195.1732 0002160 127.6747 232.4441 15.08844802112184,6917.866,95.437,541.225,538.236,0.0
52686.0,STARLINK-4005,PAYLOAD,2024-05-26 10:25:42,15.08844896,0.0001348,53.2151,192.498,125.5512,234.5606,0.00036339,5.501e-05,0.0,0 STARLINK-4005,1 52686U 22053AG  24147.43451509  .00005501  00000-0  36339-3 0  9996,2 52686  53.2151 192.4980 0001348 125.5512 234.5606 15.08844896112278,6917.865,95.437,540.663,538.798,0.0
52686.0,STARLINK-4005,PAYLOAD,2024-05-27 10:16:29,15.08847159,0.0001189,53.2144,188.0276,98.0663,262.0464,0.00024716,3.649e-05,0.0,0 STARLINK-4005,1 52686U 22053AG  24148.42811415  .00003649  00000-0  24716-3 0  9999,2 52686  53.2144 188.0276 0001189  98.0663 262.0464 15.08847159112423,6917.859,95.437,540.546,538.901,0.0
52686.0,STARLINK-4005,PAYLOAD,2024-05-28 02:10:20,15.08842932,0.0001254,53.2144,185.0551,93.2358,266.8778,5.1035e-05,5.24e-06,0.0,0 STARLINK-4005,1 52686U 22053AG  24149.09051424  .00000524  00000-0  51035-4 0  9993,2 52686  53.2144 185.0551 0001254  93.2358 266.8778 15.08842932112522,6917.871,95.437,540.604,538.869,0.0
52686.0,STARLINK-4005,PAYLOAD,2024-05-28 10:07:16,15.08843702,0.0001222,53.2149,183.5676,89.0191,271.0941,4.5321e-05,4.34e-06,0.0,0 STARLINK-4005,1 52686U 22053AG  24149.42171497  .00000434  00000-0  45321-4 0  9994,2 52686  53.2149 183.5676 0001222  89.0191 271.0941 15.08843702112954,6917.869,95.437,540.579,538.889,0.0
52686.0,STARLINK-4005,PAYLOAD,2024-05-29 08:22:40,15.08843367,0.0001265,53.2159,179.4049,82.2234,277.8902,8.2356e-05,1.023e-05,0.0,0 STARLINK-4005,1 52686U 22053AG  24150.34907491  .00001023  00000-0  82356-4 0  9992,2 52686  53.2159 179.4049 0001265  82.2234 277.8902 15.08843367112715,6917.87,95.437,540.61,538.86,0.0
52686.0,STARLINK-4005,PAYLOAD,2024-05-30 08:13:26,15.08844632,0.0001164,53.2156,174.9441,85.4255,274.687,9.7763e-05,1.269e-05,0.0,0 STARLINK-4005,1 52686U 22053AG  24151.34267290  .00001269  00000-0  97763-4 0  9999,2 52686  53.2156 174.9441 0001164  85.4255 274.6870 15.08844632113248,6917.866,95.437,540.536,538.926,0.0
52686.0,STARLINK-4005,PAYLOAD,2024-05-31 04:53:28,15.08838788,0.0001196,53.216,171.0789,75.8413,284.2712,3.5083e-05,2.71e-06,0.0,0 STARLINK-4005,1 52686U 22053AG  24152.20379860  .00000271  00000-0  35083-4 0  9991,2 52686  53.2160 171.0789 0001196  75.8413 284.2712 15.08838788112998,6917.884,95.438,540.576,538.922,0.0
52686.0,STARLINK-4005,PAYLOAD,2024-05-31 08:04:14,15.08838403,0.0001207,53.2162,170.4842,80.0044,280.1085,2.1722e-05,5.8e-07,0.0,0 STARLINK-4005,1 52686U 22053AG  24152.33627846  .00000058  00000-0  21722-4 0  9993,2 52686  53.2162 170.4842 0001207  80.0044 280.1085 15.08838403113391,6917.885,95.438,540.585,538.915,0.0
52686.0,STARLINK-4005,PAYLOAD,2024-05-31 17:36:33,15.08838299,0.0001176,53.2159,168.7008,88.5801,271.5326,2.5064e-05,1.11e-06,0.0,0 STARLINK-4005,1 52686U 22053AG  24152.73371865  .00000111  00000-0  25064-4 0  9997,2 52686  53.2159 168.7008 0001176  88.5801 271.5326 15.08838299113452,6917.886,95.438,540.564,538.937,0.0
52686.0,STARLINK-4005,PAYLOAD,2024-06-01 07:55:01,15.08835075,0.0001171,53.2159,166.0245,88.3155,271.7971,8.4923e-06,-1.53e-06,0.0,0 STARLINK-4005,1 52686U 22053AG  24153.32988180 -.00000153  00000-0  84923-5 0  9994,2 52686  53.2159 166.0245 0001171  88.3155 271.7971 15.08835075113166,6917.895,95.438,540.571,538.95,0.0
52686.0,STARLINK-4005,PAYLOAD,2024-06-02 07:45:48,15.08838644,0.0001233,53.2164,161.5629,84.0506,276.0626,9.592e-05,1.239e-05,0.0,0 STARLINK-4005,1 52686U 22053AG  24154.32347954  .00001239  00000-0  95920-4 0  9996,2 52686  53.2164 161.5629 0001233  84.0506 276.0626 15.08838644113698,6917.885,95.438,540.603,538.897,0.0
52686.0,STARLINK-4005,PAYLOAD,2024-06-03 04:25:49,15.08838676,0.0001216,53.2164,157.697,82.7206,277.3925,9.4569e-05,1.217e-05,0.0,0 STARLINK-4005,1 52686U 22053AG  24155.18460184  .00001217  00000-0  94569-4 0  9996,2 52686  53.2164 157.6970 0001216  82.7206 277.3925 15.08838676113440,6917.884,95.438,540.591,538.908,0.0
52686.0,STARLINK-4005,PAYLOAD,2024-06-03 09:11:58,15.08840862,0.000119,53.2157,156.8045,81.5312,278.5815,9.2131e-05,1.179e-05,0.0,0 STARLINK-4005,1 52686U 22053AG  24155.38332070  .00001179  00000-0  92131-4 0  9990,2 52686  53.2157 156.8045 0001190  81.5312 278.5815 15.08840862113858,6917.878,95.438,540.566,538.92,0.0
52686.0,STARLINK-4005,PAYLOAD,2024-06-03 17:08:54,15.0884129,0.0001202,53.216,155.3182,86.2773,273.8357,6.6197e-05,7.66e-06,0.0,0 STARLINK-4005,1 52686U 22053AG  24155.71452122  .00000766  00000-0  66197-4 0  9992,2 52686  53.2160 155.3182 0001202  86.2773 273.8357 15.08841290113906,6917.876,95.437,540.573,538.91,0.0
52686.0,STARLINK-4005,PAYLOAD,2024-06-04 07:27:22,15.08842348,0.0001218,53.2156,152.6417,86.6888,273.4243,6.9596e-05,8.2e-06,0.0,0 STARLINK-4005,1 52686U 22053AG  24156.31068037  .00000820  00000-0  69596-4 0  9994,2 52686  53.2156 152.6417 0001218  86.6888 273.4243 15.08842348113613,6917.873,95.437,540.581,538.896,0.0
52686.0,STARLINK-4005,PAYLOAD,2024-06-05 08:53:32,15.08847039,0.0001235,53.2152,147.8832,87.4728,272.6406,9.6819e-05,1.254e-05,0.0,0 STARLINK-4005,1 52686U 22053AG  24157.37051463  .00001254  00000-0  96819-4 0  9996,2 52686  53.2152 147.8832 0001235  87.4728 272.6406 15.08847039113778,6917.859,95.437,540.578,538.87,0.0
52686.0,STARLINK-4005,PAYLOAD,2024-06-05 23:12:01,15.08837386,0.0001467,53.2158,145.2056,96.3006,263.8153,3.3007e-05,2.37e-06,0.0,0 STARLINK-4005,1 52686U 22053AG  24157.96668261  .00000237  00000-0  33007-4 0  9991,2 52686  53.2158 145.2056 0001467  96.3006 263.8153 15.08837386114247,6917.888,95.438,540.768,538.739,0.0
52686.0,STARLINK-4005,PAYLOAD,2024-06-06 05:33:33,15.08838051,0.0001502,53.2159,144.016,97.1693,262.947,3.0664e-05,2e-06,0.0,0 STARLINK-4005,1 52686U 22053AG  24158.23164240  .00000200  00000-0  30664-4 0  9996,2 52686  53.2159 144.0160 0001502  97.1693 262.9470 15.08838051113906,6917.886,95.438,540.79,538.712,0.0
52686.0,STARLINK-4005,PAYLOAD,2024-06-07 08:35:06,15.08842581,0.0001521,53.2167,138.9602,105.7164,254.3996,6.4534e-05,7.39e-06,0.0,0 STARLINK-4005,1 52686U 22053AG  24159.35771866  .00000739  00000-0  64534-4 0  9998,2 52686  53.2167 138.9602 0001521 105.7164 254.3996 15.08842581114078,6917.872,95.437,540.79,538.685,0.0
52686.0,STARLINK-4005,PAYLOAD,2024-06-08 08:25:54,15.08842074,0.0001207,53.2151,134.5024,88.8912,271.2218,0.00010917,1.45e-05,0.0,0 STARLINK-4005,1 52686U 22053AG  24160.35131993  .00001450  00000-0  10917-3 0  9997,2 52686  53.2151 134.5024 0001207  88.8912 271.2218 15.08842074114605,6917.874,95.437,540.574,538.904,0.0
52686.0,STARLINK-4005,PAYLOAD,2024-06-08 22:44:23,15.08835285,0.0001305,53.2165,131.8244,92.2547,267.8594,1.5517e-06,-2.63e-06,0.0,0 STARLINK-4005,1 52686U 22053AG  24160.94748871 -.00000263  00000-0  15517-5 0  9996,2 52686  53.2165 131.8244 0001305  92.2547 267.8594 15.08835285114699,6917.895,95.438,540.663,538.857,0.0
52686.0,STARLINK-4005,PAYLOAD,2024-06-09 05:05:55,15.08840713,0.0001254,53.2159,130.6365,88.883,271.2306,6.0945e-05,6.82e-06,0.0,0 STARLINK-4005,1 52686U 22053AG  24161.21244432  .00000682  00000-0  60945-4 0  9999,2 52686  53.2159 130.6365 0001254  88.8830 271.2306 15.08840713114357,6917.878,95.438,540.611,538.876,0.0
52686.0,STARLINK-4005,PAYLOAD,2024-06-09 14:38:14,15.08838162,0.0001264,53.216,128.8521,86.7531,273.3605,6.69e-05,7.77e-06,0.0,0 STARLINK-4005,1 52686U 22053AG  24161.60988651  .00000777  00000-0  66900-4 0  9992,2 52686  53.2160 128.8521 0001264  86.7531 273.3605 15.08838162114796,6917.886,95.438,540.625,538.877,0.0
52686.0,STARLINK-4005,PAYLOAD,2024-06-09 22:35:10,15.08835137,0.0001453,53.2176,127.3685,98.6648,261.4508,-1.9341e-05,-5.96e-06,0.0,0 STARLINK-4005,1 52686U 22053AG  24161.94109300 -.00000596  00000-0 -19341-4 0  9993,2 52686  53.2176 127.3685 0001453  98.6648 261.4508 15.08835137114844,6917.895,95.438,540.765,538.755,0.0
52686.0,STARLINK-4005,PAYLOAD,2024-06-10 04:56:43,15.08834989,0.0001476,53.2176,126.1793,100.4732,259.6426,-3.0506e-06,-3.36e-06,0.0,0 STARLINK-4005,1 52686U 22053AG  24162.20605348 -.00000336  00000-0 -30506-5 0  9995,2 52686  53.2176 126.1793 0001476 100.4732 259.6426 15.08834989114507,6917.896,95.438,540.782,538.74,0.0
52686.0,STARLINK-4005,PAYLOAD,2024-06-10 14:29:01,15.08836434,0.0001419,53.2174,124.3937,89.6744,270.441,6.7469e-05,7.86e-06,0.0,0 STARLINK-4005,1 52686U 22053AG  24162.60349206  .00000786  00000-0  67469-4 0  9991,2 52686  53.2174 124.3937 0001419  89.6744 270.4410 15.08836434114942,6917.891,95.438,540.738,538.775,0.0
52686.0,STARLINK-4005,PAYLOAD,2024-06-11 06:22:52,15.08844704,0.0001412,53.2175,121.4204,92.5756,267.5398,0.00013704,1.894e-05,0.0,0 STARLINK-4005,1 52686U 22053AG  24163.26588751  .00001894  00000-0  13704-3 0  9997,2 52686  53.2175 121.4204 0001412  92.5756 267.5398 15.08844704115040,6917.866,95.437,540.708,538.754,0.0
52686.0,STARLINK-4005,PAYLOAD,2024-06-12 04:38:16,15.088448,0.0001558,53.2176,117.2548,85.6056,274.5114,0.00015861,2.238e-05,0.0,0 STARLINK-4005,1 52686U 22053AG  24164.19324735  .00002238  00000-0  15861-3 0  9999,2 52686  53.2176 117.2548 0001558  85.6056 274.5114 15.08844800114806,6917.866,95.437,540.809,538.653,0.0
